$$SOE
2460147.500000000, A.D. 2023-Jul-22 00:00:00.0000, 1.579200838255514E+09, -4.801505712730247E+09, -1.091279925007823E+08,
2460154.500000000, A.D. 2023-Jul-29 00:00:00.0000, 1.582081878067296E+09, -4.799883020846755E+09, -1.093282756861036E+08,
2460161.500000000, A.D. 2023-Aug-05 00:00:00.0000, 1.584962238754735E+09, -4.798258548138551E+09, -1.095285154350252E+08,
2460168.500000000, A.D. 2023-Aug-12 00:00:00.0000, 1.587841916711830E+09, -4.796632296506684E+09, -1.097287115072029E+08,
2460175.500000000, A.D. 2023-Aug-19 00:00:00.0000, 1.590720908636785E+09, -4.795004268341826E+09, -1.099288636924446E+08,
2460182.500000000, A.D. 2023-Aug-26 00:00:00.0000, 1.593599211532748E+09, -4.793374466434274E+09, -1.101289718046315E+08,
2460189.500000000, A.D. 2023-Sep-02 00:00:00.0000, 1.596476822685566E+09, -4.791742893955270E+09, -1.103290356802976E+08,
2460196.500000000, A.D. 2023-Sep-09 00:00:00.0000, 1.599353739655150E+09, -4.790109554550851E+09, -1.105290551885736E+08,
2460203.500000000, A.D. 2023-Sep-16 00:00:00.0000, 1.602229960448904E+09, -4.788474452606240E+09, -1.107290302726204E+08,
2460210.500000000, A.D. 2023-Sep-23 00:00:00.0000, 1.605105484293604E+09, -4.786837593393995E+09, -1.109289610372403E+08,
2460217.500000000, A.D. 2023-Sep-30 00:00:00.0000, 1.607980312666177E+09, -4.785198981915187E+09, -1.111288477541246E+08,
2460224.500000000, A.D. 2023-Oct-07 00:00:00.0000, 1.610854448229638E+09, -4.783558620976450E+09, -1.113286906130617E+08,
2460231.500000000, A.D. 2023-Oct-14 00:00:00.0000, 1.613727892714069E+09, -4.781916511816042E+09, -1.115284895850980E+08,
2460238.500000000, A.D. 2023-Oct-21 00:00:00.0000, 1.616600646971268E+09, -4.780272655676233E+09, -1.117282445626051E+08,
2460245.500000000, A.D. 2023-Oct-28 00:00:00.0000, 1.619472711778688E+09, -4.778627054061872E+09, -1.119279554606898E+08,
2460252.500000000, A.D. 2023-Nov-04 00:00:00.0000, 1.622344088142653E+09, -4.776979708455523E+09, -1.121276222279825E+08,
2460259.500000000, A.D. 2023-Nov-11 00:00:00.0000, 1.625214777278403E+09, -4.775330620089070E+09, -1.123272448318639E+08,
2460266.500000000, A.D. 2023-Nov-18 00:00:00.0000, 1.628084780486473E+09, -4.773679789836076E+09, -1.125268232432530E+08,
2460273.500000000, A.D. 2023-Nov-25 00:00:00.0000, 1.630954098998237E+09, -4.772027218202337E+09, -1.127263574255748E+08,
2460280.500000000, A.D. 2023-Dec-02 00:00:00.0000, 1.633822733818788E+09, -4.770372905425855E+09, -1.129258473312247E+08,
2460287.500000000, A.D. 2023-Dec-09 00:00:00.0000, 1.636690685645000E+09, -4.768716851745085E+09, -1.131252929173818E+08,
2460294.500000000, A.D. 2023-Dec-16 00:00:00.0000, 1.639557955146293E+09, -4.767059057822969E+09, -1.133246942064545E+08,
2460301.500000000, A.D. 2023-Dec-23 00:00:00.0000, 1.642424543956588E+09, -4.765399524639234E+09, -1.135240513670180E+08,
2460308.500000000, A.D. 2023-Dec-30 00:00:00.0000, 1.645290455037188E+09, -4.763738251801744E+09, -1.137233646066484E+08,
2460315.500000000, A.D. 2024-Jan-06 00:00:00.0000, 1.648155690638179E+09, -4.762075236637630E+09, -1.139226339071927E+08,
2460322.500000000, A.D. 2024-Jan-13 00:00:00.0000, 1.651020251031063E+09, -4.760410475871056E+09, -1.141218590413795E+08,
2460329.500000000, A.D. 2024-Jan-20 00:00:00.0000, 1.653884135236189E+09, -4.758743966803091E+09, -1.143210397311509E+08,
2460336.500000000, A.D. 2024-Jan-27 00:00:00.0000, 1.656747341716252E+09, -4.757075707341465E+09, -1.145201757086101E+08,
2460343.500000000, A.D. 2024-Feb-03 00:00:00.0000, 1.659609868607480E+09, -4.755405695828832E+09, -1.147192667180264E+08,
2460350.500000000, A.D. 2024-Feb-10 00:00:00.0000, 1.662471713765877E+09, -4.753733930960644E+09, -1.149183125083642E+08,
2460357.500000000, A.D. 2024-Feb-17 00:00:00.0000, 1.665332874767213E+09, -4.752060411784739E+09, -1.151173128285742E+08,
2460364.500000000, A.D. 2024-Feb-24 00:00:00.0000, 1.668193348896710E+09, -4.750385137767832E+09, -1.153162674278810E+08,
2460371.500000000, A.D. 2024-Mar-02 00:00:00.0000, 1.671053133157768E+09, -4.748708108961432E+09, -1.155151760665290E+08,
2460378.500000000, A.D. 2024-Mar-09 00:00:00.0000, 1.673912224438527E+09, -4.747029326330035E+09, -1.157140385549395E+08,
2460385.500000000, A.D. 2024-Mar-16 00:00:00.0000, 1.676770620231598E+09, -4.745348792044356E+09, -1.159128548414526E+08,
2460392.500000000, A.D. 2024-Mar-23 00:00:00.0000, 1.679628319803351E+09, -4.743666508630520E+09, -1.161116250485816E+08,
2460399.500000000, A.D. 2024-Mar-30 00:00:00.0000, 1.682485323571644E+09, -4.741982477002023E+09, -1.163103492544100E+08,
2460406.500000000, A.D. 2024-Apr-06 00:00:00.0000, 1.685341630948014E+09, -4.740296696742074E+09, -1.165090273178303E+08,
2460413.500000000, A.D. 2024-Apr-13 00:00:00.0000, 1.688197240195456E+09, -4.738609167799904E+09, -1.167076590049949E+08,
2460420.500000000, A.D. 2024-Apr-20 00:00:00.0000, 1.691052149349652E+09, -4.736919890924355E+09, -1.169062441108885E+08,
2460427.500000000, A.D. 2024-Apr-27 00:00:00.0000, 1.693906356686632E+09, -4.735228867396166E+09, -1.171047824827113E+08,
2460434.500000000, A.D. 2024-May-04 00:00:00.0000, 1.696759860824771E+09, -4.733536098762235E+09, -1.173032740105624E+08,
2460441.500000000, A.D. 2024-May-11 00:00:00.0000, 1.699612660699473E+09, -4.731841586673488E+09, -1.175017186155007E+08,
2460448.500000000, A.D. 2024-May-18 00:00:00.0000, 1.702464755492528E+09, -4.730145332804460E+09, -1.177001162406001E+08,
2460455.500000000, A.D. 2024-May-25 00:00:00.0000, 1.705316144540854E+09, -4.728447338861391E+09, -1.178984668476622E+08,
2460462.500000000, A.D. 2024-Jun-01 00:00:00.0000, 1.708166827284476E+09, -4.726747606735946E+09, -1.180967704295552E+08,
2460469.500000000, A.D. 2024-Jun-08 00:00:00.0000, 1.711016803500097E+09, -4.725046138827189E+09, -1.182950270624101E+08,
2460476.500000000, A.D. 2024-Jun-15 00:00:00.0000, 1.713866074219803E+09, -4.723342937986465E+09, -1.184932369895008E+08,
2460483.500000000, A.D. 2024-Jun-22 00:00:00.0000, 1.716714642329639E+09, -4.721638005909796E+09, -1.186914005483043E+08,
2460490.500000000, A.D. 2024-Jun-29 00:00:00.0000, 1.719562510726489E+09, -4.719931341798416E+09, -1.188895178946898E+08,
2460497.500000000, A.D. 2024-Jul-06 00:00:00.0000, 1.722409680678200E+09, -4.718222943758401E+09, -1.190875889685514E+08,
2460504.500000000, A.D. 2024-Jul-13 00:00:00.0000, 1.725256152336249E+09, -4.716512810115206E+09, -1.192856136487424E+08,
2460511.500000000, A.D. 2024-Jul-20 00:00:00.0000, 1.728101925415274E+09, -4.714800939494370E+09, -1.194835918212035E+08,
2460518.500000000, A.D. 2024-Jul-27 00:00:00.0000, 1.730946999383477E+09, -4.713087330627789E+09, -1.196815233785231E+08,
2460525.500000000, A.D. 2024-Aug-03 00:00:00.0000, 1.733791373436843E+09, -4.711371982260426E+09, -1.198794082066643E+08,
2460532.500000000, A.D. 2024-Aug-10 00:00:00.0000, 1.736635046422926E+09, -4.709654893161713E+09, -1.200772461745832E+08,
2460539.500000000, A.D. 2024-Aug-17 00:00:00.0000, 1.739478016761564E+09, -4.707936062219625E+09, -1.202750371294870E+08,
2460546.500000000, A.D. 2024-Aug-24 00:00:00.0000, 1.742320282390322E+09, -4.706215488639337E+09, -1.204727809023449E+08,
2460553.500000000, A.D. 2024-Aug-31 00:00:00.0000, 1.745161840850315E+09, -4.704493172307561E+09, -1.206704773395395E+08,
2460560.500000000, A.D. 2024-Sep-07 00:00:00.0000, 1.748002689877891E+09, -4.702769114195848E+09, -1.208681263841217E+08,
2460567.500000000, A.D. 2024-Sep-14 00:00:00.0000, 1.750842828587435E+09, -4.701043315806671E+09, -1.210657281333399E+08,
2460574.500000000, A.D. 2024-Sep-21 00:00:00.0000, 1.753682257216446E+09, -4.699315777249483E+09, -1.212632826528661E+08,
2460581.500000000, A.D. 2024-Sep-28 00:00:00.0000, 1.756520974945409E+09, -4.697586497174213E+09, -1.214607897669475E+08,
2460588.500000000, A.D. 2024-Oct-05 00:00:00.0000, 1.759358979462153E+09, -4.695855474560407E+09, -1.216582491610892E+08,
2460595.500000000, A.D. 2024-Oct-12 00:00:00.0000, 1.762196267910082E+09, -4.694122709381763E+09, -1.218556605207360E+08,
2460602.500000000, A.D. 2024-Oct-19 00:00:00.0000, 1.765032837469346E+09, -4.692388202416742E+09, -1.220530235675535E+08,
2460609.500000000, A.D. 2024-Oct-26 00:00:00.0000, 1.767868685538620E+09, -4.690651955006473E+09, -1.222503380558417E+08,
2460616.500000000, A.D. 2024-Nov-02 00:00:00.0000, 1.770703809774931E+09, -4.688913968908077E+09, -1.224476037648015E+08,
2460623.500000000, A.D. 2024-Nov-09 00:00:00.0000, 1.773538208088254E+09, -4.687174246222441E+09, -1.226448204938030E+08,
2460630.500000000, A.D. 2024-Nov-16 00:00:00.0000, 1.776371878616949E+09, -4.685432789395889E+09, -1.228419880629530E+08,
2460637.500000000, A.D. 2024-Nov-23 00:00:00.0000, 1.779204819731107E+09, -4.683689601345364E+09, -1.230391063272803E+08,
2460644.500000000, A.D. 2024-Nov-30 00:00:00.0000, 1.782037030272239E+09, -4.681944685749491E+09, -1.232361752270541E+08,
2460651.500000000, A.D. 2024-Dec-07 00:00:00.0000, 1.784868510448862E+09, -4.680198047084714E+09, -1.234331948782222E+08,
2460658.500000000, A.D. 2024-Dec-14 00:00:00.0000, 1.787699262699438E+09, -4.678449689182331E+09, -1.236301655396676E+08,
2460665.500000000, A.D. 2024-Dec-21 00:00:00.0000, 1.790529290204181E+09, -4.676699613547050E+09, -1.238270873458660E+08,
2460672.500000000, A.D. 2024-Dec-28 00:00:00.0000, 1.793358595018257E+09, -4.674947820404340E+09, -1.240239602281840E+08,
2460679.500000000, A.D. 2025-Jan-04 00:00:00.0000, 1.796187178423667E+09, -4.673194310100313E+09, -1.242207840686498E+08,
2460686.500000000, A.D. 2025-Jan-11 00:00:00.0000, 1.799015041678634E+09, -4.671439083194259E+09, -1.244175587832713E+08,
2460693.500000000, A.D. 2025-Jan-18 00:00:00.0000, 1.801842186247689E+09, -4.669682140162603E+09, -1.246142843256311E+08,
2460700.500000000, A.D. 2025-Jan-25 00:00:00.0000, 1.804668613756072E+09, -4.667923481188842E+09, -1.248109606716115E+08,
2460707.500000000, A.D. 2025-Feb-01 00:00:00.0000, 1.807494325858081E+09, -4.666163106069538E+09, -1.250075878048267E+08,
$$EOE